[{"OBJECT_NAME":"LEMUR-2-DEMBITZ","OBJECT_ID":"2017-042T","EPOCH":"2026-03-09T11:23:53.232288","MEAN_MOTION":15.26947128,"ECCENTRICITY":0.00069617,"INCLINATION":97.3807,"RA_OF_ASC_NODE":250.9241,"ARG_OF_PERICENTER":17.1421,"MEAN_ANOMALY":343.0051,"EPHEMERIS_TYPE":0,"CLASSIFICATION_TYPE":"U","NORAD_CAT_ID":42842,"ELEMENT_SET_NO":999,"REV_AT_EPOCH":47311,"BSTAR":0.00076560825,"MEAN_MOTION_DOT":0.00020231,"MEAN_MOTION_DDOT":0},{"OBJECT_NAME":"STARLINK-30539","OBJECT_ID":"2023-153P","EPOCH":"2026-03-09T01:06:24.405984","MEAN_MOTION":15.26767353,"ECCENTRICITY":7.977e-5,"INCLINATION":42.9977,"RA_OF_ASC_NODE":70.1915,"ARG_OF_PERICENTER":178.2383,"MEAN_ANOMALY":181.8471,"EPHEMERIS_TYPE":0,"CLASSIFICATION_TYPE":"U","NORAD_CAT_ID":58004,"ELEMENT_SET_NO":999,"REV_AT_EPOCH":13479,"BSTAR":-0.00047045668,"MEAN_MOTION_DOT":-0.00012867,"MEAN_MOTION_DDOT":0}]
